NORAD_CAT_ID,OBJECT_NAME,OBJECT_TYPE,EPOCH,MEAN_MOTION,ECCENTRICITY,INCLINATION,RA_OF_ASC_NODE,ARG_OF_PERICENTER,MEAN_ANOMALY,BSTAR,MEAN_MOTION_DOT,MEAN_MOTION_DDOT,TLE_LINE0,TLE_LINE1,TLE_LINE2,SEMIMAJOR_AXIS,PERIOD,APOGEE,PERIGEE,DECAYED
52119.0,STARLINK-3558,PAYLOAD,2022-09-10 14:00:01,15.08854339,0.0001467,53.2184,47.7738,65.5083,185.7674,-0.0011275,-0.00018194,0.0,0 STARLINK-3558,1 52119U 22029AH  22253.58334491 -.00018194  00000-0 -11275-2 0  9997,2 52119  53.2184  47.7738 0001467  65.5083 185.7674 15.08854339  1302,6917.837,95.437,540.716,538.687,0.0
52119.0,STARLINK-3558,PAYLOAD,2022-09-10 22:00:00,15.08834125,0.0001483,53.218,46.2783,57.0676,205.8059,-0.00076245,-0.000124,0.0,0 STARLINK-3558,1 52119U 22029AH  22253.91667824 -.00012400  00000-0 -76245-3 0  9996,2 52119  53.2180  46.2783 0001483  57.0676 205.8059 15.08834125 28204,6917.898,95.438,540.789,538.737,0.0
52119.0,STARLINK-3558,PAYLOAD,2022-09-11 14:00:01,15.08850531,0.0001404,53.2183,43.2848,62.5546,223.4927,-0.0010151,-0.00016411,0.0,0 STARLINK-3558,1 52119U 22029AH  22254.58334491 -.00016411  00000-0 -10151-2 0  9990,2 52119  53.2183  43.2848 0001404  62.5546 223.4927 15.08850531 28306,6917.848000000001,95.437,540.684,538.742,0.0
52119.0,STARLINK-3558,PAYLOAD,2022-09-11 22:00:00,15.08846142,0.0001499,53.218,41.7893,55.6916,241.9512,-0.00070919,-0.00011559,0.0,0 STARLINK-3558,1 52119U 22029AH  22254.91667824 -.00011559  00000-0 -70919-3 0  9993,2 52119  53.2180  41.7893 0001499  55.6916 241.9512 15.08846142  1303,6917.861999999999,95.437,540.764,538.69,0.0
52119.0,STARLINK-3558,PAYLOAD,2022-09-12 12:00:00,15.08849372,0.000154,53.2185,39.1696,65.5986,162.3284,-0.00031987,-5.376e-05,0.0,0 STARLINK-3558,1 52119U 22029AH  22255.50001157 -.00005376  00000-0 -31987-3 0  9992,2 52119  53.2185  39.1696 0001540  65.5986 162.3284 15.08849372 28437,6917.852,95.437,540.7819999999998,538.651,0.0
52119.0,STARLINK-3558,PAYLOAD,2022-09-12 14:00:01,15.08852572,0.0001575,53.2184,38.796,62.4225,258.4045,-0.00086647,-0.00014056,0.0,0 STARLINK-3558,1 52119U 22029AH  22255.58334491 -.00014056  00000-0 -86647-3 0  9998,2 52119  53.2184  38.7960 0001575  62.4225 258.4045 15.08852572  1300,6917.842,95.437,540.797,538.617,0.0
52119.0,STARLINK-3558,PAYLOAD,2022-09-12 22:00:00,15.08860432,0.0001659,53.2183,37.3004,55.9838,276.4429,-0.0013569,-0.0002183,0.0,0 STARLINK-3558,1 52119U 22029AH  22255.91667824 -.00021830  00000-0 -13569-2 0  9994,2 52119  53.2183  37.3004 0001659  55.9838 276.4429 15.08860432  1303,6917.818,95.436,540.831,538.535,0.0
52119.0,STARLINK-3558,PAYLOAD,2022-09-13 14:00:01,15.0885375,0.0001672,53.2189,34.3073,59.5556,296.0831,-0.0024345,-0.00038839,0.0,0 STARLINK-3558,1 52119U 22029AH  22256.58334491 -.00038839  00000-0 -24345-2 0  9990,2 52119  53.2189  34.3073 0001672  59.5556 296.0831 15.08853750  1304,6917.8380000000025,95.437,540.86,538.547,0.0
52119.0,STARLINK-3558,PAYLOAD,2022-09-13 16:00:00,15.0883295,0.0001728,53.2186,33.9341,57.5584,30.9854,-0.00020296,-3.516e-05,0.0,0 STARLINK-3558,1 52119U 22029AH  22256.66667824 -.00003516  00000-0 -20296-3 0  9994,2 52119  53.2186  33.9341 0001728  57.5584  30.9854 15.08832950 28617,6917.901999999999,95.438,540.962,538.572,0.0
52119.0,STARLINK-3558,PAYLOAD,2022-09-13 22:00:00,15.08831387,0.0001706,53.2179,32.8129,51.995,315.1999,0.0011164,0.0001751999999999,0.0,0 STARLINK-3558,1 52119U 22029AH  22256.91667824  .00017520  00000-0  11164-2 0  9993,2 52119  53.2179  32.8129 0001706  51.9950 315.1999 15.08831387  1300,6917.906999999997,95.438,540.952,538.592,0.0
52119.0,STARLINK-3558,PAYLOAD,2022-09-14 14:00:01,15.08866459,0.0001689,53.2193,29.8187,56.9883,333.391,-0.0035317,-0.00056098,0.0,0 STARLINK-3558,1 52119U 22029AH  22257.58334491 -.00056098  00000-0 -35317-2 0  9999,2 52119  53.2193  29.8187 0001689  56.9883 333.3910 15.08866459  1309,6917.8,95.436,540.8330000000002,538.496,0.0
52119.0,STARLINK-3558,PAYLOAD,2022-09-14 22:00:00,15.08851108,0.0001730999999999,53.2192,28.3227,51.8384,350.1389,-0.002048,-0.00032744,0.0,0 STARLINK-3558,1 52119U 22029AH  22257.91667824 -.00032744  00000-0 -20480-2 0  9992,2 52119  53.2192  28.3227 0001731  51.8384 350.1389 15.08851108 28801,6917.846,95.437,540.909,538.514,0.0
52119.0,STARLINK-3558,PAYLOAD,2022-09-15 14:00:01,15.08839467,0.0001641999999999,53.2197,25.33,53.1742,12.0022,-0.00056658,-9.294e-05,0.0,0 STARLINK-3558,1 52119U 22029AH  22258.58334491 -.00009294  00000-0 -56658-3 0  9998,2 52119  53.2197  25.3300 0001642  53.1742  12.0022 15.08839467  1307,6917.882,95.438,540.883,538.611,0.0
52119.0,STARLINK-3558,PAYLOAD,2022-09-15 16:00:00,15.08830698,0.0001689,53.2197,24.9563,51.654,106.4221,0.00071481,0.00011104,0.0,0 STARLINK-3558,1 52119U 22029AH  22258.66667824  .00011104  00000-0  71481-3 0  9998,2 52119  53.2197  24.9563 0001689  51.6540 106.4221 15.08830698  1309,6917.909000000002,95.438,540.942,538.605,0.0
52119.0,STARLINK-3558,PAYLOAD,2022-09-16 11:58:11,15.08835825,0.0001638,53.2218,21.2222,60.5116,299.6040000000001,-3.521e-05,-8.48e-06,0.0,0 STARLINK-3558,1 52119U 22029AH  22259.49874034 -.00000848  00000-0 -35210-4 0  9999,2 52119  53.2218  21.2222 0001638  60.5116 299.6040 15.08835825 29038,6917.893,95.438,540.891,538.625,0.0
52119.0,STARLINK-3558,PAYLOAD,2022-09-16 18:19:43,15.08838211,0.0001585999999999,53.2208,20.0307,62.4965,297.6188,-3.0936e-05,-7.8e-06,0.0,0 STARLINK-3558,1 52119U 22029AH  22259.76369859 -.00000780  00000-0 -30936-4 0  9998,2 52119  53.2208  20.0307 0001586  62.4965 297.6188 15.08838211 29070,6917.886,95.438,540.8480000000002,538.654,0.0
52119.0,STARLINK-3558,PAYLOAD,2022-09-17 11:48:59,15.08801952,0.0001819,53.2211,16.7596,69.3528,290.7659,0.00034264,5.164e-05,0.0,0 STARLINK-3558,1 52119U 22029AH  22260.49235034  .00005164  00000-0  34264-3 0  9993,2 52119  53.2211  16.7596 0001819  69.3528 290.7659 15.08801952 29187,6917.996999999999,95.44,541.12,538.6030000000002,0.0
52119.0,STARLINK-3558,PAYLOAD,2022-09-17 14:59:44,15.08833114,0.0001606,53.2208,16.1653,60.0002,300.115,-2.6034e-06,-3.29e-06,0.0,0 STARLINK-3558,1 52119U 22029AH  22260.62482456 -.00000329  00000-0 -26034-5 0  9998,2 52119  53.2208  16.1653 0001606  60.0002 300.1150 15.08833114 29200,6917.901,95.438,540.877,538.655,0.0
52119.0,STARLINK-3558,PAYLOAD,2022-09-18 11:39:46,15.08825413,0.0001496999999999,53.2204,12.2995,57.5358,302.5779,-9.9161e-06,-4.46e-06,0.0,0 STARLINK-3558,1 52119U 22029AH  22261.48595363 -.00000446  00000-0 -99161-5 0  9996,2 52119  53.2204  12.2995 0001497  57.5358 302.5779 15.08825413 29346,6917.925,95.438,540.826,538.754,0.0
52119.0,STARLINK-3558,PAYLOAD,2022-09-18 13:15:09,15.08826165,0.0001518,53.22,12.0019,55.9483,304.1653,-1.1094e-05,-4.64e-06,0.0,0 STARLINK-3558,1 52119U 22029AH  22261.55219383 -.00000464  00000-0 -11094-4 0  9997,2 52119  53.2200  12.0019 0001518  55.9483 304.1653 15.08826165 29346,6917.9230000000025,95.438,540.8380000000002,538.738,0.0
52119.0,STARLINK-3558,PAYLOAD,2022-09-18 16:25:55,15.08831176,0.0001530999999999,53.2202,11.408,57.2924,302.8215,3.752e-05,3.09e-06,0.0,0 STARLINK-3558,1 52119U 22029AH  22261.68467005  .00000309  00000-0  37520-4 0  9995,2 52119  53.2202  11.4080 0001531  57.2924 302.8215 15.08831176 29368,6917.906999999997,95.438,540.831,538.7130000000002,0.0
52119.0,STARLINK-3558,PAYLOAD,2022-09-19 06:44:23,15.08840193,0.0001511,53.2204,8.7317,51.4629,308.6498,0.00013437,1.851e-05,0.0,0 STARLINK-3558,1 52119U 22029AH  22262.28082270  .00001851  00000-0  13437-3 0  9992,2 52119  53.2204   8.7317 0001511  51.4629 308.6498 15.08840193 29465,6917.88,95.438,540.79,538.7,0.0
52119.0,STARLINK-3558,PAYLOAD,2022-09-19 11:30:33,15.08829129,0.000157,53.2204,7.8396,52.9167,307.1968,9.9884e-06,-1.29e-06,0.0,0 STARLINK-3558,1 52119U 22029AH  22262.47955531 -.00000129  00000-0  99884-5 0  9992,2 52119  53.2204   7.8396 0001570  52.9167 307.1968 15.08829129 29484,6917.9140000000025,95.438,540.865,538.693,0.0
52119.0,STARLINK-3558,PAYLOAD,2022-09-20 00:13:38,15.08840242,0.000154,53.2201,5.4606,56.1165,303.9973,4.099e-05,3.64e-06,0.0,0 STARLINK-3558,1 52119U 22029AH  22263.00946850  .00000364  00000-0  40990-4 0  9999,2 52119  53.2201   5.4606 0001540  56.1165 303.9973 15.08840242 29579,6917.88,95.438,540.81,538.679,0.0
52119.0,STARLINK-3558,PAYLOAD,2022-09-20 12:56:43,15.08832583,0.0001689,53.2205,3.0823,50.0587,310.0553,8.012899999999999e-05,9.87e-06,0.0,0 STARLINK-3558,1 52119U 22029AH  22263.53939380  .00000987  00000-0  80129-4 0  9996,2 52119  53.2205   3.0823 0001689  50.0587 310.0553 15.08832583 29643,6917.903,95.438,540.936,538.6,0.0
52119.0,STARLINK-3558,PAYLOAD,2022-09-21 01:39:48,15.08841375,0.0001659,53.2202,0.7032,52.3659,307.7484,3.5021e-05,2.69e-06,0.0,0 STARLINK-3558,1 52119U 22029AH  22264.06931013  .00000269  00000-0  35021-4 0  9994,2 52119  53.2202   0.7032 0001659  52.3659 307.7484 15.08841375 29733,6917.876,95.437,540.889,538.594,0.0
52119.0,STARLINK-3558,PAYLOAD,2022-09-21 12:47:29,15.08848893,0.0001935,53.2191,358.6212,61.3844,298.7343,3.6333e-06,-2.3e-06,0.0,0 STARLINK-3558,1 52119U 22029AH  22264.53298531 -.00000230  00000-0  36333-5 0  9994,2 52119  53.2191 358.6212 0001935  61.3844 298.7343 15.08848893 29801,6917.853,95.437,541.057,538.38,0.0
52119.0,STARLINK-3558,PAYLOAD,2022-09-22 12:38:18,15.08831611,0.0002133999999999,53.2212,354.1653,49.9874,310.1305,1.8114e-05,0.0,0.0,0 STARLINK-3558,1 52119U 22029AH  22265.52659786  .00000000  00000-0  18114-4 0  9997,2 52119  53.2212 354.1653 0002134  49.9874 310.1305 15.08831611 29944,6917.906,95.438,541.247,538.295,0.0
52119.0,STARLINK-3558,PAYLOAD,2022-09-23 01:21:22,15.08842971,0.0002085,53.2212,351.7874,43.2839,316.8317,-3.1282e-05,-7.86e-06,0.0,0 STARLINK-3558,1 52119U 22029AH  22266.05651370 -.00000786  00000-0 -31282-4 0  9991,2 52119  53.2212 351.7874 0002085  43.2839 316.8317 15.08842971 30034,6917.871,95.437,541.179,538.294,0.0
